start=new Date('2022-04-27T00:00:00.000Z').valueOf();
sats=[{"APOAPSIS":"443.441","FILE":"3417474","BSTAR":"-0.01761900000000","INCLINATION":"53.2171","OBJECT_ID":"2022-025AJ","LAUNCH_DATE":"2022-03-09","ECCENTRICITY":"0.00012970","MEAN_ANOMALY":"33.1323","SITE":"AFETR","CENTER_NAME":"EARTH","PERIAPSIS":"441.672","COUNTRY_CODE":"US","CLASSIFICATION_TYPE":"U","RCS_SIZE":"LARGE","REF_FRAME":"TEME","RA_OF_ASC_NODE":"263.5702","ELEMENT_SET_NO":"999","MEAN_MOTION":"15.41204157","REV_AT_EPOCH":"364","TLE_LINE2":"2 51988  53.2171 263.5702 0001297  56.6008  33.1323 15.41204157  3649","OBJECT_NAME":"STARLINK-3640","OBJECT_TYPE":"PAYLOAD","MEAN_ELEMENT_THEORY":"SGP4","GP_ID":"202114009","TLE_LINE1":"1 51988U 22025AJ  22116.91667824 -.00688890  00000-0 -17619-1 0  9993","NORAD_CAT_ID":"51988","PERIOD":"93.433","ARG_OF_PERICENTER":"56.6008","SEMIMAJOR_AXIS":"6820.691","DECAY_DATE":null,"TIME_SYSTEM":"UTC","EPOCH":"2022-04-26T22:00:00.999936","EPHEMERIS_TYPE":"0","MEAN_MOTION_DDOT":"0.0000000000000","MEAN_MOTION_DOT":"-0.00688890"},{"EPOCH":"2022-04-26T22:00:00.999936","TIME_SYSTEM":"UTC","SEMIMAJOR_AXIS":"6822.135","DECAY_DATE":null,"MEAN_MOTION_DOT":"-0.00688994","MEAN_MOTION_DDOT":"0.0000000000000","EPHEMERIS_TYPE":"0","OBJECT_TYPE":"PAYLOAD","OBJECT_NAME":"STARLINK-3642","TLE_LINE2":"2 51989  53.2172 263.5754 0001599  37.4718  10.9044 15.40714840  3645","MEAN_MOTION":"15.40714840","REV_AT_EPOCH":"364","TLE_LINE1":"1 51989U 22025AK  22116.91667824 -.00688994  00000-0 -17911-1 0  9994","NORAD_CAT_ID":"51989","PERIOD":"93.463","ARG_OF_PERICENTER":"37.4718","GP_ID":"202113756","MEAN_ELEMENT_THEORY":"SGP4","REF_FRAME":"TEME","COUNTRY_CODE":"US","PERIAPSIS":"442.909","CLASSIFICATION_TYPE":"U","RCS_SIZE":"LARGE","ELEMENT_SET_NO":"999","RA_OF_ASC_NODE":"263.5754","LAUNCH_DATE":"2022-03-09","ECCENTRICITY":"0.00015990","MEAN_ANOMALY":"10.9044","OBJECT_ID":"2022-025AK","INCLINATION":"53.2172","BSTAR":"-0.01791100000000","APOAPSIS":"445.091","FILE":"3417474","CENTER_NAME":"EARTH","SITE":"AFETR"},{"REF_FRAME":"TEME","PERIAPSIS":"348.907","COUNTRY_CODE":"US","CLASSIFICATION_TYPE":"U","RCS_SIZE":"MEDIUM","ELEMENT_SET_NO":"999","RA_OF_ASC_NODE":"260.4409","LAUNCH_DATE":"2022-03-09","MEAN_ANOMALY":"155.5817","ECCENTRICITY":"0.00012810","OBJECT_ID":"2022-025AL","INCLINATION":"53.2129","BSTAR":"-0.00010539000000","APOAPSIS":"350.630","FILE":"3417474","CENTER_NAME":"EARTH","SITE":"AFETR","EPOCH":"2022-04-26T22:00:00.999936","TIME_SYSTEM":"UTC","SEMIMAJOR_AXIS":"6727.903","DECAY_DATE":null,"MEAN_MOTION_DOT":"-0.00015382","MEAN_MOTION_DDOT":"0.0000000000000","EPHEMERIS_TYPE":"0","OBJECT_TYPE":"PAYLOAD","OBJECT_NAME":"STARLINK-3657","TLE_LINE2":"2 51990  53.2129 260.4409 0001281  43.2813 155.5817 15.73197122  3672","MEAN_MOTION":"15.73197122","REV_AT_EPOCH":"367","NORAD_CAT_ID":"51990","TLE_LINE1":"1 51990U 22025AL  22116.91667824 -.00015382  00000-0 -10539-3 0  9992","PERIOD":"91.533","ARG_OF_PERICENTER":"43.2813","MEAN_ELEMENT_THEORY":"SGP4","GP_ID":"202113923"},{"COUNTRY_CODE":"US","PERIAPSIS":"442.281","CLASSIFICATION_TYPE":"U","RCS_SIZE":"LARGE","REF_FRAME":"TEME","ELEMENT_SET_NO":"999","RA_OF_ASC_NODE":"263.5729","INCLINATION":"53.2171","BSTAR":"-0.01776000000000","FILE":"3417474","APOAPSIS":"444.276","LAUNCH_DATE":"2022-03-09","ECCENTRICITY":"0.00014620","MEAN_ANOMALY":"25.6490","OBJECT_ID":"2022-025AM","SITE":"AFETR","CENTER_NAME":"EARTH","TIME_SYSTEM":"UTC","SEMIMAJOR_AXIS":"6821.413","DECAY_DATE":null,"EPOCH":"2022-04-26T22:00:00.999936","MEAN_MOTION_DDOT":"0.0000000000000","EPHEMERIS_TYPE":"0","MEAN_MOTION_DOT":"-0.00688779","TLE_LINE2":"2 51991  53.2171 263.5729 0001462  43.4792  25.6490 15.40959419  3637","MEAN_MOTION":"15.40959419","REV_AT_EPOCH":"363","OBJECT_TYPE":"PAYLOAD","OBJECT_NAME":"STARLINK-3652","MEAN_ELEMENT_THEORY":"SGP4","GP_ID":"202113841","TLE_LINE1":"1 51991U 22025AM  22116.91667824 -.00688779  00000-0 -17760-1 0  9990","NORAD_CAT_ID":"51991","ARG_OF_PERICENTER":"43.4792","PERIOD":"93.448"},{"MEAN_ELEMENT_THEORY":"SGP4","GP_ID":"202113680","TLE_LINE1":"1 51992U 22025AN  22116.91667824 -.00043181  00000-0 -30451-3 0  9997","NORAD_CAT_ID":"51992","PERIOD":"91.532","ARG_OF_PERICENTER":"56.6349","MEAN_MOTION":"15.73224013","REV_AT_EPOCH":"367","TLE_LINE2":"2 51992  53.2133 260.4361 0001271  56.6349 144.1023 15.73224013  3670","OBJECT_NAME":"STARLINK-3643","OBJECT_TYPE":"PAYLOAD","MEAN_MOTION_DDOT":"0.0000000000000","EPHEMERIS_TYPE":"0","MEAN_MOTION_DOT":"-0.00043181","SEMIMAJOR_AXIS":"6727.827","DECAY_DATE":null,"TIME_SYSTEM":"UTC","EPOCH":"2022-04-26T22:00:00.999936","SITE":"AFETR","CENTER_NAME":"EARTH","APOAPSIS":"350.547","FILE":"3417474","INCLINATION":"53.2133","BSTAR":"-0.00030451000000","OBJECT_ID":"2022-025AN","LAUNCH_DATE":"2022-03-09","ECCENTRICITY":"0.00012710","MEAN_ANOMALY":"144.1023","RA_OF_ASC_NODE":"260.4361","ELEMENT_SET_NO":"999","PERIAPSIS":"348.837","COUNTRY_CODE":"US","CLASSIFICATION_TYPE":"U","RCS_SIZE":"LARGE","REF_FRAME":"TEME"},{"REF_FRAME":"TEME","CLASSIFICATION_TYPE":"U","RCS_SIZE":"LARGE","COUNTRY_CODE":"US","PERIAPSIS":"441.233","RA_OF_ASC_NODE":"263.5684","ELEMENT_SET_NO":"999","OBJECT_ID":"2022-025AP","ECCENTRICITY":"0.00014110","MEAN_ANOMALY":"48.9435","LAUNCH_DATE":"2022-03-09","APOAPSIS":"443.158","FILE":"3417474","INCLINATION":"53.2171","BSTAR":"-0.01754500000000","CENTER_NAME":"EARTH","SITE":"AFETR","EPOCH":"2022-04-26T22:00:00.999936","DECAY_DATE":null,"SEMIMAJOR_AXIS":"6820.330","TIME_SYSTEM":"UTC","MEAN_MOTION_DOT":"-0.00688831","EPHEMERIS_TYPE":"0","MEAN_MOTION_DDOT":"0.0000000000000","OBJECT_NAME":"STARLINK-3648","OBJECT_TYPE":"PAYLOAD","REV_AT_EPOCH":"363","MEAN_MOTION":"15.41326452","TLE_LINE2":"2 51993  53.2171 263.5684 0001411  51.0370  48.9435 15.41326452  3633","ARG_OF_PERICENTER":"51.0370","PERIOD":"93.426","TLE_LINE1":"1 51993U 22025AP  22116.91667824 -.00688831  00000-0 -17545-1 0  9992","NORAD_CAT_ID":"51993","GP_ID":"202113425","MEAN_ELEMENT_THEORY":"SGP4"},{"REF_FRAME":"TEME","RCS_SIZE":"LARGE","CLASSIFICATION_TYPE":"U","PERIAPSIS":"348.942","COUNTRY_CODE":"US","ELEMENT_SET_NO":"999","RA_OF_ASC_NODE":"260.4355","MEAN_ANOMALY":"151.0498","ECCENTRICITY":"0.00012320","LAUNCH_DATE":"2022-03-09","OBJECT_ID":"2022-025AQ","BSTAR":"-0.00008558400000","INCLINATION":"53.2134","APOAPSIS":"350.599","FILE":"3417474","CENTER_NAME":"EARTH","SITE":"AFETR","EPOCH":"2022-04-26T22:00:00.999936","TIME_SYSTEM":"UTC","DECAY_DATE":null,"SEMIMAJOR_AXIS":"6727.906","MEAN_MOTION_DOT":"-0.00012611","MEAN_MOTION_DDOT":"0.0000000000000","EPHEMERIS_TYPE":"0","OBJECT_TYPE":"PAYLOAD","OBJECT_NAME":"STARLINK-3647","TLE_LINE2":"2 51994  53.2134 260.4355 0001232  50.3530 151.0498 15.73196367  3680","REV_AT_EPOCH":"368","MEAN_MOTION":"15.73196367","PERIOD":"91.533","ARG_OF_PERICENTER":"50.3530","TLE_LINE1":"1 51994U 22025AQ  22116.91667824 -.00012611  00000-0 -85584-4 0  9991","NORAD_CAT_ID":"51994","GP_ID":"202113593","MEAN_ELEMENT_THEORY":"SGP4"},{"TLE_LINE1":"1 51995U 22025AR  22116.91667824 -.00022250  00000-0 -15445-3 0  9990","NORAD_CAT_ID":"51995","ARG_OF_PERICENTER":"49.6620","PERIOD":"91.532","GP_ID":"202113511","MEAN_ELEMENT_THEORY":"SGP4","OBJECT_NAME":"STARLINK-3636","OBJECT_TYPE":"PAYLOAD","MEAN_MOTION":"15.73212125","REV_AT_EPOCH":"368","TLE_LINE2":"2 51995  53.2138 260.4403 0001282  49.6620 149.8078 15.73212125  3685","MEAN_MOTION_DOT":"-0.00022250","MEAN_MOTION_DDOT":"0.0000000000000","EPHEMERIS_TYPE":"0","EPOCH":"2022-04-26T22:00:00.999936","SEMIMAJOR_AXIS":"6727.861","DECAY_DATE":null,"TIME_SYSTEM":"UTC","CENTER_NAME":"EARTH","SITE":"AFETR","OBJECT_ID":"2022-025AR","LAUNCH_DATE":"2022-03-09","MEAN_ANOMALY":"149.8078","ECCENTRICITY":"0.00012820","FILE":"3417474","APOAPSIS":"350.588","INCLINATION":"53.2138","BSTAR":"-0.00015445000000","RA_OF_ASC_NODE":"260.4403","ELEMENT_SET_NO":"999","REF_FRAME":"TEME","PERIAPSIS":"348.863","COUNTRY_CODE":"US","CLASSIFICATION_TYPE":"U","RCS_SIZE":"LARGE"},{"ELEMENT_SET_NO":"999","RA_OF_ASC_NODE":"260.4343","RCS_SIZE":"LARGE","CLASSIFICATION_TYPE":"U","COUNTRY_CODE":"US","PERIAPSIS":"348.891","REF_FRAME":"TEME","SITE":"AFETR","CENTER_NAME":"EARTH","INCLINATION":"53.2134","BSTAR":"-0.00011185000000","APOAPSIS":"350.511","FILE":"3417474","ECCENTRICITY":"0.00012040","MEAN_ANOMALY":"151.6904","LAUNCH_DATE":"2022-03-09","OBJECT_ID":"2022-025AS","MEAN_MOTION_DDOT":"0.0000000000000","EPHEMERIS_TYPE":"0","MEAN_MOTION_DOT":"-0.00016301","TIME_SYSTEM":"UTC","DECAY_DATE":null,"SEMIMAJOR_AXIS":"6727.836","EPOCH":"2022-04-26T22:00:00.999936","MEAN_ELEMENT_THEORY":"SGP4","GP_ID":"202114010","PERIOD":"91.532","ARG_OF_PERICENTER":"50.2969","NORAD_CAT_ID":"51996","TLE_LINE1":"1 51996U 22025AS  22116.91667824 -.00016301  00000-0 -11185-3 0  9998","TLE_LINE2":"2 51996  53.2134 260.4343 0001204  50.2969 151.6904 15.73220881  3680","REV_AT_EPOCH":"368","MEAN_MOTION":"15.73220881","OBJECT_TYPE":"PAYLOAD","OBJECT_NAME":"STARLINK-3538"},{"BSTAR":"-0.00086568000000","INCLINATION":"53.2135","FILE":"3417474","APOAPSIS":"350.588","MEAN_ANOMALY":"136.6343","ECCENTRICITY":"0.00014610","LAUNCH_DATE":"2022-03-09","OBJECT_ID":"2022-025AT","SITE":"AFETR","CENTER_NAME":"EARTH","CLASSIFICATION_TYPE":"U","RCS_SIZE":"LARGE","COUNTRY_CODE":"US","PERIAPSIS":"348.622","REF_FRAME":"TEME","ELEMENT_SET_NO":"999","RA_OF_ASC_NODE":"260.4358","TLE_LINE2":"2 51997  53.2135 260.4358 0001461  63.4243 136.6343 15.73254523  3673","REV_AT_EPOCH":"367","MEAN_MOTION":"15.73254523","OBJECT_TYPE":"PAYLOAD","OBJECT_NAME":"STARLINK-3589","MEAN_ELEMENT_THEORY":"SGP4","GP_ID":"202113757","ARG_OF_PERICENTER":"63.4243","PERIOD":"91.530","TLE_LINE1":"1 51997U 22025AT  22116.91667824 -.00120669  00000-0 -86568-3 0  9999","NORAD_CAT_ID":"51997","TIME_SYSTEM":"UTC","DECAY_DATE":null,"SEMIMAJOR_AXIS":"6727.740","EPOCH":"2022-04-26T22:00:00.999936","MEAN_MOTION_DDOT":"0.0000000000000","EPHEMERIS_TYPE":"0","MEAN_MOTION_DOT":"-0.00120669"}];
